OBJECT_NAME,OBJECT_ID,EPOCH,MEAN_MOTION,ECCENTRICITY,INCLINATION,RA_OF_ASC_NODE,ARG_OF_PERICENTER,MEAN_ANOMALY,EPHEMERIS_TYPE,CLASSIFICATION_TYPE,NORAD_CAT_ID,ELEMENT_SET_NO,REV_AT_EPOCH,BSTAR,MEAN_MOTION_DOT,MEAN_MOTION_DDOT
STARLINK-6196,2023-064AR,2026-06-14T12:58:48.626112,14.98330459,.00029,69.9983,220.1079,261.7829,98.3001,0,U,56487,999,17074,.84044E-4,.91E-5,0
STARLINK-6204,2023-064AS,2026-06-14T20:23:26.996064,14.98323588,.0003533,69.9976,219.5758,274.9695,85.1061,0,U,56488,999,17078,.75445E-4,.807E-5,0
STARLINK-5923,2023-064AT,2026-06-14T13:40:51.768768,14.98332346,.0003627,69.9987,220.2057,266.1968,93.8776,0,U,56489,999,17074,-.23314E-4,-.371E-5,0
STARLINK-5873,2023-064AU,2026-06-14T20:35:27.212640,14.98330043,.0003441,69.9988,219.6048,269.4897,90.5868,0,U,56490,999,17078,-.20052E-4,-.332E-5,0
STARLINK-5842,2023-064AV,2026-06-14T13:34:49.700064,14.98342864,.0003516,69.9986,220.1908,267.8893,92.1864,0,U,56491,999,17074,.12534E-3,.1403E-4,0
STARLINK-5846,2023-064AW,2026-06-14T13:28:50.479968,14.98329824,.0003359,69.9985,220.1762,268.6948,91.3826,0,U,56492,999,17074,.97389E-5,.23E-6,0
STARLINK-5841,2023-064AX,2026-06-14T19:35:01.402080,14.98329845,.0003475,69.9987,199.5762,268.9828,91.0932,0,U,56493,999,17127,.25305E-5,-.63E-6,0
STARLINK-5530,2023-064AY,2026-06-14T13:29:04.754112,14.98330814,.0003554,69.9984,220.1768,269.7382,90.3369,0,U,56494,999,17073,-.21729E-4,-.352E-5,0
STARLINK-5529,2023-064AZ,2026-06-14T13:16:49.404576,14.98326988,.0003117,69.9985,220.1467,270.7014,89.3788,0,U,56495,999,17074,.20546E-4,.152E-5,0
STARLINK-5526,2023-064BA,2026-06-14T13:10:48.560160,14.98328143,.000404,69.9984,220.1324,268.5269,91.5428,0,U,56496,999,17074,-.15706E-4,-.281E-5,0
STARLINK-5527,2023-064BB,2026-06-14T20:00:04.998816,14.98355731,.0003935,69.9997,219.3919,270.7223,203.5356,0,U,56497,999,580,-.3187E-2,-.37944E-3,0
STARLINK-5522,2023-064BC,2026-06-14T13:22:49.891296,14.98328402,.0003413,69.9984,220.1614,269.3926,90.6842,0,U,56498,999,17074,.1048E-4,.32E-6,0
STARLINK-5775,2023-065A,2026-06-14T08:10:52.584960,15.27575763,.00019601,43.0044,26.4526,264.1256,95.9373,0,U,56503,999,17138,.21799504E-4,.337E-5,0
STARLINK-5716,2023-065B,2026-06-14T21:04:30.387936,15.27567405,.000211,43.0009,23.5985,268.1344,91.9266,0,U,56504,999,17146,-.26238E-4,-.984E-5,0
STARLINK-5763,2023-065C,2026-06-13T22:09:09.532800,15.27574961,.0000978,43.0043,29.3280,244.1800,115.8951,0,U,56505,999,17131,.5101E-5,-.122E-5,0
STARLINK-5340,2023-065D,2026-06-14T07:08:11.229216,15.27576175,.00014582,43.0089,15.6705,266.4416,93.6269,0,U,56506,999,17150,.5271326E-5,-.117E-5,0
STARLINK-5333,2023-065E,2026-06-14T06:00:10.474272,15.27587365,.000132,43.0074,354.4091,287.0386,73.0321,0,U,56507,999,17174,.40073E-4,.841E-5,0
STARLINK-5335,2023-065F,2026-06-14T07:50:31.422912,15.27573841,.00016183,43.0150,26.3424,272.4487,87.6180,0,U,56508,999,17138,-.18473252E-4,-.771E-5,0
STARLINK-5334,2023-065G,2026-06-14T08:07:10.610400,15.27575627,.00014615,43.0076,26.4266,264.9158,95.1527,0,U,56509,999,17138,.1335205E-5,-.226E-5,0
STARLINK-5339,2023-065H,2026-06-14T07:56:03.594624,15.27591977,.00017921,43.0209,26.3740,260.5202,99.5448,0,U,56510,999,17138,.60033322E-4,.139E-4,0
STARLINK-5351,2023-065J,2026-06-14T08:16:25.494528,15.27577089,.00018028,43.0081,26.4695,266.2579,93.8066,0,U,56511,999,17138,.7210135E-5,-.64E-6,0
STARLINK-5349,2023-065K,2026-06-14T08:01:36.975072,15.27580321,.0001759,43.0093,26.3919,272.7385,87.3266,0,U,56512,999,17138,.17753897E-4,.226E-5,0
STARLINK-5329,2023-065L,2026-06-13T21:22:53.042016,15.27577340,.00018904,43.0091,29.0917,279.1350,80.9288,0,U,56513,999,17131,.15231477E-4,.157E-5,0
STARLINK-5348,2023-065N,2026-06-14T21:00:47.018016,15.27575842,.0001865,43.0080,23.5766,269.0191,91.0447,0,U,56515,999,17146,.64078E-5,-.86E-6,0
STARLINK-5342,2023-065P,2026-06-14T08:12:43.410240,15.27577223,.00027582,43.0168,26.4590,275.0084,85.0453,0,U,56516,999,17138,.5088258E-5,-.123E-5,0
STARLINK-5345,2023-065Q,2026-06-14T21:17:26.225376,15.27576311,.0001282,43.0032,23.6518,268.3958,91.6747,0,U,56517,999,17146,.17895E-4,.23E-5,0
STARLINK-5346,2023-065R,2026-06-14T21:06:20.293056,15.27575052,.0001572,43.0050,23.6035,267.8238,92.2433,0,U,56518,999,17146,.35617E-5,-.164E-5,0
STARLINK-6313,2023-065S,2026-06-14T21:26:41.172576,15.27563410,.0001245,43.0003,23.6980,237.5775,122.4957,0,U,56519,999,17146,.54543E-4,.1238E-4,0
STARLINK-6344,2023-065T,2026-06-14T21:11:55.055904,15.27560794,.0001324,43.0023,23.6267,263.9359,96.1342,0,U,56520,999,17146,-.30025E-4,-.1088E-4,0
STARLINK-6333,2023-065U,2026-06-14T21:29:40.502688,15.27578691,.0001202,43.0070,27.1180,251.0189,109.0532,0,U,56521,999,17142,.1906E-4,.262E-5,0
