STARLINK-6196           
1 56487U 23064AR  26165.54084058  .00000910  00000+0  84044-4 0  9992
2 56487  69.9983 220.1079 0002900 261.7829  98.3001 14.98330459170749
STARLINK-6204           
1 56488U 23064AS  26165.84961801  .00000807  00000+0  75445-4 0  9996
2 56488  69.9976 219.5758 0003533 274.9695  85.1061 14.98323588170787
STARLINK-5923           
1 56489U 23064AT  26165.57004362 -.00000371  00000+0 -23314-4 0  9993
2 56489  69.9987 220.2057 0003627 266.1968  93.8776 14.98332346170748
STARLINK-5873           
1 56490U 23064AU  26165.85795385 -.00000332  00000+0 -20052-4 0  9991
2 56490  69.9988 219.6048 0003441 269.4897  90.5868 14.98330043170786
STARLINK-5842           
1 56491U 23064AV  26165.56585301  .00001403  00000+0  12534-3 0  9998
2 56491  69.9986 220.1908 0003516 267.8893  92.1864 14.98342864170742
STARLINK-5846           
1 56492U 23064AW  26165.56169537  .00000023  00000+0  97389-5 0  9998
2 56492  69.9985 220.1762 0003359 268.6948  91.3826 14.98329824170745
STARLINK-5841           
1 56493U 23064AX  26165.81598845 -.00000063  00000+0  25305-5 0  9999
2 56493  69.9987 199.5762 0003475 268.9828  91.0932 14.98329845171273
STARLINK-5530           
1 56494U 23064AY  26165.56186058 -.00000352  00000+0 -21729-4 0  9998
2 56494  69.9984 220.1768 0003554 269.7382  90.3369 14.98330814170734
STARLINK-5529           
1 56495U 23064AZ  26165.55334959  .00000152  00000+0  20546-4 0  9995
2 56495  69.9985 220.1467 0003117 270.7014  89.3788 14.98326988170742
STARLINK-5526           
1 56496U 23064BA  26165.54917315 -.00000281  00000+0 -15706-4 0  9995
2 56496  69.9984 220.1324 0004040 268.5269  91.5428 14.98328143170748
STARLINK-5527           
1 56497U 23064BB  26165.83339119 -.00037944  00000+0 -31870-2 0  9992
2 56497  69.9997 219.3919 0003935 270.7223 203.5356 14.98355731  5802
STARLINK-5522           
1 56498U 23064BC  26165.55752189  .00000032  00000+0  10480-4 0  9990
2 56498  69.9984 220.1614 0003413 269.3926  90.6842 14.98328402170742
STARLINK-5775           
1 56503U 23065A   26165.34088640  .00000337  00000+0  21800-4 0  9995
2 56503  43.0044  26.4526 0001960 264.1256  95.9373 15.27575763171387
STARLINK-5716           
1 56504U 23065B   26165.87812949 -.00000984  00000+0 -26238-4 0  9991
2 56504  43.0009  23.5985 0002110 268.1344  91.9266 15.27567405171466
STARLINK-5763           
1 56505U 23065C   26164.92302700 -.00000122  00000+0  51010-5 0  9996
2 56505  43.0043  29.3280 0000978 244.1800 115.8951 15.27574961171314
STARLINK-5340           
1 56506U 23065D   26165.29735219 -.00000117  00000+0  52713-5 0  9998
2 56506  43.0089  15.6705 0001458 266.4416  93.6269 15.27576175171504
STARLINK-5333           
1 56507U 23065E   26165.25012123  .00000841  00000+0  40073-4 0  9995
2 56507  43.0074 354.4091 0001320 287.0386  73.0321 15.27587365171744
STARLINK-5335           
1 56508U 23065F   26165.32675258 -.00000771  00000+0 -18473-4 0  9991
2 56508  43.0150  26.3424 0001618 272.4487  87.6180 15.27573841171383
STARLINK-5334           
1 56509U 23065G   26165.33831725 -.00000226  00000+0  13352-5 0  9992
2 56509  43.0076  26.4266 0001461 264.9158  95.1527 15.27575627171386
STARLINK-5339           
1 56510U 23065H   26165.33059716  .00001390  00000+0  60033-4 0  9995
2 56510  43.0209  26.3740 0001792 260.5202  99.5448 15.27591977171387
STARLINK-5351           
1 56511U 23065J   26165.34473952 -.00000064  00000+0  72101-5 0  9997
2 56511  43.0081  26.4695 0001802 266.2579  93.8066 15.27577089171389
STARLINK-5349           
1 56512U 23065K   26165.33445573  .00000226  00000+0  17754-4 0  9996
2 56512  43.0093  26.3919 0001759 272.7385  87.3266 15.27580321171382
STARLINK-5329           
1 56513U 23065L   26164.89089169  .00000157  00000+0  15231-4 0  9993
2 56513  43.0091  29.0917 0001890 279.1350  80.9288 15.27577340171311
STARLINK-5348           
1 56515U 23065N   26165.87554419 -.00000086  00000+0  64078-5 0  9995
2 56515  43.0080  23.5766 0001865 269.0191  91.0447 15.27575842171466
STARLINK-5342           
1 56516U 23065P   26165.34216910 -.00000123  00000+0  50883-5 0  9990
2 56516  43.0168  26.4590 0002758 275.0084  85.0453 15.27577223171387
STARLINK-5345           
1 56517U 23065Q   26165.88710909  .00000230  00000+0  17895-4 0  9990
2 56517  43.0032  23.6518 0001282 268.3958  91.6747 15.27576311171468
STARLINK-5346           
1 56518U 23065R   26165.87940154 -.00000164  00000+0  35617-5 0  9997
2 56518  43.0050  23.6035 0001572 267.8238  92.2433 15.27575052171460
STARLINK-6313           
1 56519U 23065S   26165.89353209  .00001238  00000+0  54543-4 0  9999
2 56519  43.0003  23.6980 0001245 237.5775 122.4957 15.27563410171467
STARLINK-6344           
1 56520U 23065T   26165.88327611 -.00001088  00000+0 -30025-4 0  9992
2 56520  43.0023  23.6267 0001324 263.9359  96.1342 15.27560794171465
STARLINK-6333           
1 56521U 23065U   26165.89560767  .00000262  00000+0  19060-4 0  9992
2 56521  43.0070  27.1180 0001202 251.0189 109.0532 15.27578691171421
